STARLINK-36544          
1 67517U 26012AA  26040.83335647 -.01918172  00000+0 -28639-1 0  9997
2 67517  42.9991 112.6384 0001072 272.8637 348.1390 15.57636970  4597
STARLINK-36412          
1 67518U 26012AB  26040.83335647 -.01925079  00000+0 -29615-1 0  9997
2 67518  43.0001 112.6193 0001219 272.0486 356.1072 15.56858401  4531
STARLINK-36415          
1 67519U 26012AC  26040.83335647 -.01924103  00000+0 -29377-1 0  9990
2 67519  42.9999 112.5911 0001143 268.6959  10.1909 15.57057765  4749
STARLINK-36547          
1 67520U 26012AD  26040.83335647 -.01923227  00000+0 -29784-1 0  9990
2 67520  42.9994 112.6402 0001262 275.9805 343.6361 15.56678228  4530
STARLINK-36444          
1 67521U 26012AE  26040.83335647 -.01884212  00000+0 -31032-1 0  9990
2 67521  42.9997 112.7477 0000889 291.4957 284.8319 15.54964680  4539
HULIANWANG DIGUI-146    
1 67522U 26013A   26039.66906079 -.00000016  00000+0  11721-3 0  9999
2 67522  50.0077 103.7562 0001969   8.0103 352.0823 13.82461331  2843
HULIANWANG DIGUI-147    
1 67523U 26013B   26039.59518140 -.00000021  00000+0  11167-3 0  9990
2 67523  50.0037 103.9536 0000975 276.3245  83.7539 13.82635588  2834
HULIANWANG DIGUI-148    
1 67524U 26013C   26039.66380742  .00000004  00000+0  13380-3 0  9993
2 67524  49.9933 103.7491 0001026 346.5569  13.5299 13.82980871  2845
HULIANWANG DIGUI-149    
1 67525U 26013D   26039.66118013 -.00000003  00000+0  12756-3 0  9990
2 67525  50.0083 103.7107 0001163  77.8678 282.2348 13.83196814  2843
HULIANWANG DIGUI-150    
1 67526U 26013E   26040.52212928 -.00000014  00000+0  11850-3 0  9994
2 67526  50.0085 100.2082 0003173 190.5978 169.4850 13.82369291  2988
HULIANWANG DIGUI-151    
1 67527U 26013F   26040.44844858  .00000016  00000+0  14200-3 0  9992
2 67527  50.0014 100.5416 0002672 207.3402 152.7353 13.84664897  2959
HULIANWANG DIGUI-152    
1 67528U 26013G   26039.36470613  .00000016  00000+0  14214-3 0  9991
2 67528  50.0066 104.7990 0000984  46.0388 314.0590 13.84453091  2807
